CCSDS_OMM_VERS = 2.0
CREATION_DATE  = 
ORIGINATOR     = 

OBJECT_NAME    = COSMOS 2597 (RODNIK-S 22)
OBJECT_ID      = 2025-273A
CENTER_NAME    = EARTH
REF_FRAME      = TEME
TIME_SYSTEM    = UTC
MEAN_ELEMENT_THEORY = SGP/SGP4

EPOCH          = 2025-12-04T04:13:48.642816
MEAN_MOTION    = 12.41950973
ECCENTRICITY   = .0008119
INCLINATION    = 82.4982
RA_OF_ASC_NODE = 291.7674
ARG_OF_PERICENTER = 309.2024
MEAN_ANOMALY   = 50.8333

EPHEMERIS_TYPE = 0
CLASSIFICATION_TYPE = U
NORAD_CAT_ID   = 66647
ELEMENT_SET_NO = 999
REV_AT_EPOCH   = 107
BSTAR          = -.15287E-3
MEAN_MOTION_DOT = -.11E-6
MEAN_MOTION_DDOT = 0

CCSDS_OMM_VERS = 2.0
CREATION_DATE  = 
ORIGINATOR     = 

OBJECT_NAME    = COSMOS 2598 (RODNIK-S 23)
OBJECT_ID      = 2025-273B
CENTER_NAME    = EARTH
REF_FRAME      = TEME
TIME_SYSTEM    = UTC
MEAN_ELEMENT_THEORY = SGP/SGP4

EPOCH          = 2025-12-04T04:10:49.408608
MEAN_MOTION    = 12.42253094
ECCENTRICITY   = .000821
INCLINATION    = 82.5023
RA_OF_ASC_NODE = 291.7744
ARG_OF_PERICENTER = 297.7809
MEAN_ANOMALY   = 62.2438

EPHEMERIS_TYPE = 0
CLASSIFICATION_TYPE = U
NORAD_CAT_ID   = 66648
ELEMENT_SET_NO = 999
REV_AT_EPOCH   = 107
BSTAR          = .54042E-4
MEAN_MOTION_DOT = .17E-6
MEAN_MOTION_DDOT = 0

CCSDS_OMM_VERS = 2.0
CREATION_DATE  = 
ORIGINATOR     = 

OBJECT_NAME    = COSMOS 2599 (RODNIK-S 24)
OBJECT_ID      = 2025-273C
CENTER_NAME    = EARTH
REF_FRAME      = TEME
TIME_SYSTEM    = UTC
MEAN_ELEMENT_THEORY = SGP/SGP4

EPOCH          = 2025-12-04T04:16:34.426272
MEAN_MOTION    = 12.41671767
ECCENTRICITY   = .0008336
INCLINATION    = 82.5023
RA_OF_ASC_NODE = 291.7777
ARG_OF_PERICENTER = 319.5382
MEAN_ANOMALY   = 40.5076

EPHEMERIS_TYPE = 0
CLASSIFICATION_TYPE = U
NORAD_CAT_ID   = 66649
ELEMENT_SET_NO = 999
REV_AT_EPOCH   = 107
BSTAR          = -.81605E-4
MEAN_MOTION_DOT = -.1E-7
MEAN_MOTION_DDOT = 0

CCSDS_OMM_VERS = 2.0
CREATION_DATE  = 
ORIGINATOR     = 

OBJECT_NAME    = 2025-274A
OBJECT_ID      = 2025-274A
CENTER_NAME    = EARTH
REF_FRAME      = TEME
TIME_SYSTEM    = UTC
MEAN_ELEMENT_THEORY = SGP/SGP4

EPOCH          = 2025-12-04T00:45:47.106144
MEAN_MOTION    = 14.91614176
ECCENTRICITY   = .0010407
INCLINATION    = 97.7385
RA_OF_ASC_NODE = 265.3799
ARG_OF_PERICENTER = 285.2129
MEAN_ANOMALY   = 74.7939

EPHEMERIS_TYPE = 0
CLASSIFICATION_TYPE = U
NORAD_CAT_ID   = 66650
ELEMENT_SET_NO = 999
REV_AT_EPOCH   = 110
BSTAR          = .36384E-3
MEAN_MOTION_DOT = .36E-4
MEAN_MOTION_DDOT = 0

CCSDS_OMM_VERS = 2.0
CREATION_DATE  = 
ORIGINATOR     = 

OBJECT_NAME    = 2025-274B
OBJECT_ID      = 2025-274B
CENTER_NAME    = EARTH
REF_FRAME      = TEME
TIME_SYSTEM    = UTC
MEAN_ELEMENT_THEORY = SGP/SGP4

EPOCH          = 2025-12-04T00:45:21.574080
MEAN_MOTION    = 14.91692437
ECCENTRICITY   = .0010679
INCLINATION    = 97.7381
RA_OF_ASC_NODE = 265.3798
ARG_OF_PERICENTER = 284.8310
MEAN_ANOMALY   = 75.1726

EPHEMERIS_TYPE = 0
CLASSIFICATION_TYPE = U
NORAD_CAT_ID   = 66651
ELEMENT_SET_NO = 999
REV_AT_EPOCH   = 110
BSTAR          = .75013E-3
MEAN_MOTION_DOT = .7502E-4
MEAN_MOTION_DDOT = 0

CCSDS_OMM_VERS = 2.0
CREATION_DATE  = 
ORIGINATOR     = 

OBJECT_NAME    = 2025-274C
OBJECT_ID      = 2025-274C
CENTER_NAME    = EARTH
REF_FRAME      = TEME
TIME_SYSTEM    = UTC
MEAN_ELEMENT_THEORY = SGP/SGP4

EPOCH          = 2025-12-03T18:17:57.681024
MEAN_MOTION    = 14.91827269
ECCENTRICITY   = .00104455
INCLINATION    = 97.7384
RA_OF_ASC_NODE = 265.1180
ARG_OF_PERICENTER = 292.3547
MEAN_ANOMALY   = 67.6564

EPHEMERIS_TYPE = 0
CLASSIFICATION_TYPE = U
NORAD_CAT_ID   = 66652
ELEMENT_SET_NO = 999
REV_AT_EPOCH   = 106
BSTAR          = .43073165E-3
MEAN_MOTION_DOT = .4296E-4
MEAN_MOTION_DDOT = 0

CCSDS_OMM_VERS = 2.0
CREATION_DATE  = 
ORIGINATOR     = 

OBJECT_NAME    = 2025-274D
OBJECT_ID      = 2025-274D
CENTER_NAME    = EARTH
REF_FRAME      = TEME
TIME_SYSTEM    = UTC
MEAN_ELEMENT_THEORY = SGP/SGP4

EPOCH          = 2025-12-03T18:17:53.932128
MEAN_MOTION    = 14.91833854
ECCENTRICITY   = .00112927
INCLINATION    = 97.7381
RA_OF_ASC_NODE = 265.1178
ARG_OF_PERICENTER = 288.1129
MEAN_ANOMALY   = 71.8860

EPHEMERIS_TYPE = 0
CLASSIFICATION_TYPE = U
NORAD_CAT_ID   = 66653
ELEMENT_SET_NO = 999
REV_AT_EPOCH   = 106
BSTAR          = .39267919E-3
MEAN_MOTION_DOT = .3913E-4
MEAN_MOTION_DDOT = 0

CCSDS_OMM_VERS = 2.0
CREATION_DATE  = 
ORIGINATOR     = 

OBJECT_NAME    = JACK E
OBJECT_ID      = 2025-274E
CENTER_NAME    = EARTH
REF_FRAME      = TEME
TIME_SYSTEM    = UTC
MEAN_ELEMENT_THEORY = SGP/SGP4

EPOCH          = 2025-12-03T18:16:47.798112
MEAN_MOTION    = 14.92000049
ECCENTRICITY   = .00118227
INCLINATION    = 97.7385
RA_OF_ASC_NODE = 265.1191
ARG_OF_PERICENTER = 289.6482
MEAN_ANOMALY   = 70.3460

EPHEMERIS_TYPE = 0
CLASSIFICATION_TYPE = U
NORAD_CAT_ID   = 66654
ELEMENT_SET_NO = 999
REV_AT_EPOCH   = 106
BSTAR          = .49113765E-3
MEAN_MOTION_DOT = .493E-4
MEAN_MOTION_DDOT = 0

CCSDS_OMM_VERS = 2.0
CREATION_DATE  = 
ORIGINATOR     = 

OBJECT_NAME    = 2025-274F
OBJECT_ID      = 2025-274F
CENTER_NAME    = EARTH
REF_FRAME      = TEME
TIME_SYSTEM    = UTC
MEAN_ELEMENT_THEORY = SGP/SGP4

EPOCH          = 2025-12-03T18:15:50.074272
MEAN_MOTION    = 14.92224124
ECCENTRICITY   = .00078443
INCLINATION    = 97.7361
RA_OF_ASC_NODE = 265.1198
ARG_OF_PERICENTER = 318.0696
MEAN_ANOMALY   = 41.9921

EPHEMERIS_TYPE = 0
CLASSIFICATION_TYPE = U
NORAD_CAT_ID   = 66655
ELEMENT_SET_NO = 999
REV_AT_EPOCH   = 106
BSTAR          = .4933605E-3
MEAN_MOTION_DOT = .4977E-4
MEAN_MOTION_DDOT = 0

CCSDS_OMM_VERS = 2.0
CREATION_DATE  = 
ORIGINATOR     = 

OBJECT_NAME    = 2025-274G
OBJECT_ID      = 2025-274G
CENTER_NAME    = EARTH
REF_FRAME      = TEME
TIME_SYSTEM    = UTC
MEAN_ELEMENT_THEORY = SGP/SGP4

EPOCH          = 2025-12-03T18:15:34.313184
MEAN_MOTION    = 14.92182737
ECCENTRICITY   = .00124859
INCLINATION    = 97.7383
RA_OF_ASC_NODE = 265.1201
ARG_OF_PERICENTER = 291.2764
MEAN_ANOMALY   = 68.7121

EPHEMERIS_TYPE = 0
CLASSIFICATION_TYPE = U
NORAD_CAT_ID   = 66656
ELEMENT_SET_NO = 999
REV_AT_EPOCH   = 106
BSTAR          = .55403823E-3
MEAN_MOTION_DOT = .5595E-4
MEAN_MOTION_DDOT = 0

CCSDS_OMM_VERS = 2.0
CREATION_DATE  = 
ORIGINATOR     = 

OBJECT_NAME    = SPIRONE
OBJECT_ID      = 2025-274H
CENTER_NAME    = EARTH
REF_FRAME      = TEME
TIME_SYSTEM    = UTC
MEAN_ELEMENT_THEORY = SGP/SGP4

EPOCH          = 2025-12-03T18:14:21.784704
MEAN_MOTION    = 14.92362345
ECCENTRICITY   = .00111252
INCLINATION    = 97.7382
RA_OF_ASC_NODE = 265.1209
ARG_OF_PERICENTER = 310.4108
MEAN_ANOMALY   = 49.6140

EPHEMERIS_TYPE = 0
CLASSIFICATION_TYPE = U
NORAD_CAT_ID   = 66657
ELEMENT_SET_NO = 999
REV_AT_EPOCH   = 106
BSTAR          = .53228022E-3
MEAN_MOTION_DOT = .5396E-4
MEAN_MOTION_DDOT = 0

CCSDS_OMM_VERS = 2.0
CREATION_DATE  = 
ORIGINATOR     = 

OBJECT_NAME    = 2025-274J
OBJECT_ID      = 2025-274J
CENTER_NAME    = EARTH
REF_FRAME      = TEME
TIME_SYSTEM    = UTC
MEAN_ELEMENT_THEORY = SGP/SGP4

EPOCH          = 2025-12-03T18:13:09.737472
MEAN_MOTION    = 14.92536816
ECCENTRICITY   = .00117105
INCLINATION    = 97.7382
RA_OF_ASC_NODE = 265.1219
ARG_OF_PERICENTER = 313.2372
MEAN_ANOMALY   = 46.7869

EPHEMERIS_TYPE = 0
CLASSIFICATION_TYPE = U
NORAD_CAT_ID   = 66658
ELEMENT_SET_NO = 999
REV_AT_EPOCH   = 106
BSTAR          = .51297325E-3
MEAN_MOTION_DOT = .5222E-4
MEAN_MOTION_DDOT = 0

