COSMOS 2597 (RODNIK-S *)
1 66647U 25273A   25338.17625744 -.00000011  00000+0 -15287-3 0  9994
2 66647  82.4982 291.7674 0008119 309.2024  50.8333 12.41950973  1070
COSMOS 2598 (RODNIK-S *)
1 66648U 25273B   25338.17418297  .00000017  00000+0  54042-4 0  9995
2 66648  82.5023 291.7744 0008210 297.7809  62.2438 12.42253094  1074
COSMOS 2599 (RODNIK-S *)
1 66649U 25273C   25338.17817623 -.00000001  00000+0 -81605-4 0  9992
2 66649  82.5023 291.7777 0008336 319.5382  40.5076 12.41671767  1076
2025-274A               
1 66650U 25274A   25338.03179521  .00003600  00000+0  36384-3 0  9997
2 66650  97.7385 265.3799 0010407 285.2129  74.7939 14.91614176  1107
2025-274B               
1 66651U 25274B   25338.03149970  .00007502  00000+0  75013-3 0  9990
2 66651  97.7381 265.3798 0010679 284.8310  75.1726 14.91692437  1106
2025-274C               
1 66652U 25274C   25337.76247316  .00004296  00000+0  43073-3 0  9991
2 66652  97.7384 265.1180 0010445 292.3547  67.6564 14.91827269  1064
2025-274D               
1 66653U 25274D   25337.76242977  .00003913  00000+0  39268-3 0  9996
2 66653  97.7381 265.1178 0011292 288.1129  71.8860 14.91833854  1062
JACK E                  
1 66654U 25274E   25337.76166433  .00004930  00000+0  49114-3 0  9990
2 66654  97.7385 265.1191 0011822 289.6482  70.3460 14.92000049  1062
2025-274F               
1 66655U 25274F   25337.76099623  .00004977  00000+0  49336-3 0  9994
2 66655  97.7361 265.1198 0007844 318.0696  41.9921 14.92224124  1065
2025-274G               
1 66656U 25274G   25337.76081381  .00005595  00000+0  55404-3 0  9997
2 66656  97.7383 265.1201 0012485 291.2764  68.7121 14.92182737  1062
SPIRONE                 
1 66657U 25274H   25337.75997436  .00005396  00000+0  53228-3 0  9995
2 66657  97.7382 265.1209 0011125 310.4108  49.6140 14.92362345  1060
2025-274J               
1 66658U 25274J   25337.75914048  .00005222  00000+0  51297-3 0  9996
2 66658  97.7382 265.1219 0011710 313.2372  46.7869 14.92536816  1068
